2026-027H               
1 67753U 26027H   26052.62222094  .00328758  23374-5  59900-3 0  9990
2 67753  97.5136 182.4778 0259210 304.6847  53.0229 15.62096084  1462
2026-027J               
1 67754U 26027J   26052.59920608  .00781107  23802-5  12325-2 0  9999
2 67754  97.5102 182.5084 0231175 303.9293  54.0178 15.69877044  1402
2026-028A               
1 67756U 26028A   26052.27002859 -.00000241  00000+0  00000+0 0  9993
2 67756   0.5091 288.5386 0042038 230.3388 201.2780  0.99528211    98
KUIPER-00159            
1 67764U 26030A   26052.58335648  .00055706  00000+0  16179-2 0  9996
2 67764  51.8844 296.7916 0003825   7.4867 149.5402 15.34940432  1991
KUIPER-00160            
1 67765U 26030B   26052.58335648  .00056292  00000+0  16380-2 0  9992
2 67765  51.8810 296.7939 0004085  16.8205 137.4104 15.34875913  1300
KUIPER-00177            
1 67766U 26030C   26052.58335648  .00058477  00000+0  16563-2 0  9993
2 67766  51.8834 296.7335 0000523  86.7033  98.0620 15.35709814  2511
KUIPER-00178            
1 67767U 26030D   26052.58335648  .00055929  00000+0  16346-2 0  9992
2 67767  51.8832 296.8055 0005300   3.6273 146.1317 15.34734960  1899
KUIPER-00180            
1 67768U 26030E   26052.58335648  .00059783  00000+0  18529-2 0  9990
2 67768  51.8807 296.9230 0014719  19.0125  71.1357 15.32756676  1302
KUIPER-00197            
1 67769U 26030F   26052.58335648  .00057926  00000+0  16467-2 0  9997
2 67769  51.8834 296.7473 0001332  73.3204 104.6910 15.35600281  1308
KUIPER-00198            
1 67770U 26030G   26052.58335648  .00058343  00000+0  16771-2 0  9991
2 67770  51.8811 296.7699 0002346  17.3955 148.7946 15.35246119  1306
KUIPER-00199            
1 67771U 26030H   26052.58335648  .00057421  00000+0  17348-2 0  9999
2 67771  51.8807 296.8722 0010032  13.4643 101.9118 15.33642754  2533
KUIPER-00200            
1 67772U 26030J   26052.58335648  .00058485  00000+0  16302-2 0  9990
2 67772  51.8815 296.7071 0002447 152.4743  44.7444 15.36208119  2414
