CCSDS_OMM_VERS = 2.0
CREATION_DATE  = 
ORIGINATOR     = 

OBJECT_NAME    = 2026-027H
OBJECT_ID      = 2026-027H
CENTER_NAME    = EARTH
REF_FRAME      = TEME
TIME_SYSTEM    = UTC
MEAN_ELEMENT_THEORY = SGP/SGP4

EPOCH          = 2026-02-21T14:55:59.889216
MEAN_MOTION    = 15.62096084
ECCENTRICITY   = .025921
INCLINATION    = 97.5136
RA_OF_ASC_NODE = 182.4778
ARG_OF_PERICENTER = 304.6847
MEAN_ANOMALY   = 53.0229

EPHEMERIS_TYPE = 0
CLASSIFICATION_TYPE = U
NORAD_CAT_ID   = 67753
ELEMENT_SET_NO = 999
REV_AT_EPOCH   = 146
BSTAR          = .59899657E-3
MEAN_MOTION_DOT = .328758E-2
MEAN_MOTION_DDOT = .2337359E-5

CCSDS_OMM_VERS = 2.0
CREATION_DATE  = 
ORIGINATOR     = 

OBJECT_NAME    = 2026-027J
OBJECT_ID      = 2026-027J
CENTER_NAME    = EARTH
REF_FRAME      = TEME
TIME_SYSTEM    = UTC
MEAN_ELEMENT_THEORY = SGP/SGP4

EPOCH          = 2026-02-21T14:22:51.405312
MEAN_MOTION    = 15.69877044
ECCENTRICITY   = .02311752
INCLINATION    = 97.5102
RA_OF_ASC_NODE = 182.5084
ARG_OF_PERICENTER = 303.9293
MEAN_ANOMALY   = 54.0178

EPHEMERIS_TYPE = 0
CLASSIFICATION_TYPE = U
NORAD_CAT_ID   = 67754
ELEMENT_SET_NO = 999
REV_AT_EPOCH   = 140
BSTAR          = .12324541E-2
MEAN_MOTION_DOT = .781107E-2
MEAN_MOTION_DDOT = .2380214E-5

CCSDS_OMM_VERS = 2.0
CREATION_DATE  = 
ORIGINATOR     = 

OBJECT_NAME    = 2026-028A
OBJECT_ID      = 2026-028A
CENTER_NAME    = EARTH
REF_FRAME      = TEME
TIME_SYSTEM    = UTC
MEAN_ELEMENT_THEORY = SGP/SGP4

EPOCH          = 2026-02-21T06:28:50.470176
MEAN_MOTION    = 0.99528211
ECCENTRICITY   = .00420387
INCLINATION    = 0.5091
RA_OF_ASC_NODE = 288.5386
ARG_OF_PERICENTER = 230.3388
MEAN_ANOMALY   = 201.2780

EPHEMERIS_TYPE = 0
CLASSIFICATION_TYPE = U
NORAD_CAT_ID   = 67756
ELEMENT_SET_NO = 999
REV_AT_EPOCH   = 9
BSTAR          = 0
MEAN_MOTION_DOT = -.241E-5
MEAN_MOTION_DDOT = 0

CCSDS_OMM_VERS = 2.0
CREATION_DATE  = 
ORIGINATOR     = 

OBJECT_NAME    = KUIPER-00159
OBJECT_ID      = 2026-030A
CENTER_NAME    = EARTH
REF_FRAME      = TEME
TIME_SYSTEM    = UTC
MEAN_ELEMENT_THEORY = SGP/SGP4

EPOCH          = 2026-02-21T14:00:01.999872
MEAN_MOTION    = 15.34940432
ECCENTRICITY   = .00038251
INCLINATION    = 51.8844
RA_OF_ASC_NODE = 296.7916
ARG_OF_PERICENTER = 7.4867
MEAN_ANOMALY   = 149.5402

EPHEMERIS_TYPE = 0
CLASSIFICATION_TYPE = U
NORAD_CAT_ID   = 67764
ELEMENT_SET_NO = 999
REV_AT_EPOCH   = 199
BSTAR          = .16178933E-2
MEAN_MOTION_DOT = .55706E-3
MEAN_MOTION_DDOT = 0

CCSDS_OMM_VERS = 2.0
CREATION_DATE  = 
ORIGINATOR     = 

OBJECT_NAME    = KUIPER-00160
OBJECT_ID      = 2026-030B
CENTER_NAME    = EARTH
REF_FRAME      = TEME
TIME_SYSTEM    = UTC
MEAN_ELEMENT_THEORY = SGP/SGP4

EPOCH          = 2026-02-21T14:00:01.999872
MEAN_MOTION    = 15.34875913
ECCENTRICITY   = .00040851
INCLINATION    = 51.8810
RA_OF_ASC_NODE = 296.7939
ARG_OF_PERICENTER = 16.8205
MEAN_ANOMALY   = 137.4104

EPHEMERIS_TYPE = 0
CLASSIFICATION_TYPE = U
NORAD_CAT_ID   = 67765
ELEMENT_SET_NO = 999
REV_AT_EPOCH   = 130
BSTAR          = .16379613E-2
MEAN_MOTION_DOT = .56292E-3
MEAN_MOTION_DDOT = 0

CCSDS_OMM_VERS = 2.0
CREATION_DATE  = 
ORIGINATOR     = 

OBJECT_NAME    = KUIPER-00177
OBJECT_ID      = 2026-030C
CENTER_NAME    = EARTH
REF_FRAME      = TEME
TIME_SYSTEM    = UTC
MEAN_ELEMENT_THEORY = SGP/SGP4

EPOCH          = 2026-02-21T14:00:01.999872
MEAN_MOTION    = 15.35709814
ECCENTRICITY   = .00005233
INCLINATION    = 51.8834
RA_OF_ASC_NODE = 296.7335
ARG_OF_PERICENTER = 86.7033
MEAN_ANOMALY   = 98.0620

EPHEMERIS_TYPE = 0
CLASSIFICATION_TYPE = U
NORAD_CAT_ID   = 67766
ELEMENT_SET_NO = 999
REV_AT_EPOCH   = 251
BSTAR          = .16563095E-2
MEAN_MOTION_DOT = .58477E-3
MEAN_MOTION_DDOT = 0

CCSDS_OMM_VERS = 2.0
CREATION_DATE  = 
ORIGINATOR     = 

OBJECT_NAME    = KUIPER-00178
OBJECT_ID      = 2026-030D
CENTER_NAME    = EARTH
REF_FRAME      = TEME
TIME_SYSTEM    = UTC
MEAN_ELEMENT_THEORY = SGP/SGP4

EPOCH          = 2026-02-21T14:00:01.999872
MEAN_MOTION    = 15.34734960
ECCENTRICITY   = .00053005
INCLINATION    = 51.8832
RA_OF_ASC_NODE = 296.8055
ARG_OF_PERICENTER = 3.6273
MEAN_ANOMALY   = 146.1317

EPHEMERIS_TYPE = 0
CLASSIFICATION_TYPE = U
NORAD_CAT_ID   = 67767
ELEMENT_SET_NO = 999
REV_AT_EPOCH   = 189
BSTAR          = .16345984E-2
MEAN_MOTION_DOT = .55929E-3
MEAN_MOTION_DDOT = 0

CCSDS_OMM_VERS = 2.0
CREATION_DATE  = 
ORIGINATOR     = 

OBJECT_NAME    = KUIPER-00180
OBJECT_ID      = 2026-030E
CENTER_NAME    = EARTH
REF_FRAME      = TEME
TIME_SYSTEM    = UTC
MEAN_ELEMENT_THEORY = SGP/SGP4

EPOCH          = 2026-02-21T14:00:01.999872
MEAN_MOTION    = 15.32756676
ECCENTRICITY   = .00147196
INCLINATION    = 51.8807
RA_OF_ASC_NODE = 296.9230
ARG_OF_PERICENTER = 19.0125
MEAN_ANOMALY   = 71.1357

EPHEMERIS_TYPE = 0
CLASSIFICATION_TYPE = U
NORAD_CAT_ID   = 67768
ELEMENT_SET_NO = 999
REV_AT_EPOCH   = 130
BSTAR          = .18529451E-2
MEAN_MOTION_DOT = .59783E-3
MEAN_MOTION_DDOT = 0

CCSDS_OMM_VERS = 2.0
CREATION_DATE  = 
ORIGINATOR     = 

OBJECT_NAME    = KUIPER-00197
OBJECT_ID      = 2026-030F
CENTER_NAME    = EARTH
REF_FRAME      = TEME
TIME_SYSTEM    = UTC
MEAN_ELEMENT_THEORY = SGP/SGP4

EPOCH          = 2026-02-21T14:00:01.999872
MEAN_MOTION    = 15.35600281
ECCENTRICITY   = .0001332
INCLINATION    = 51.8834
RA_OF_ASC_NODE = 296.7473
ARG_OF_PERICENTER = 73.3204
MEAN_ANOMALY   = 104.6910

EPHEMERIS_TYPE = 0
CLASSIFICATION_TYPE = U
NORAD_CAT_ID   = 67769
ELEMENT_SET_NO = 999
REV_AT_EPOCH   = 130
BSTAR          = .16466653E-2
MEAN_MOTION_DOT = .57926E-3
MEAN_MOTION_DDOT = 0

CCSDS_OMM_VERS = 2.0
CREATION_DATE  = 
ORIGINATOR     = 

OBJECT_NAME    = KUIPER-00198
OBJECT_ID      = 2026-030G
CENTER_NAME    = EARTH
REF_FRAME      = TEME
TIME_SYSTEM    = UTC
MEAN_ELEMENT_THEORY = SGP/SGP4

EPOCH          = 2026-02-21T14:00:01.999872
MEAN_MOTION    = 15.35246119
ECCENTRICITY   = .00023466
INCLINATION    = 51.8811
RA_OF_ASC_NODE = 296.7699
ARG_OF_PERICENTER = 17.3955
MEAN_ANOMALY   = 148.7946

EPHEMERIS_TYPE = 0
CLASSIFICATION_TYPE = U
NORAD_CAT_ID   = 67770
ELEMENT_SET_NO = 999
REV_AT_EPOCH   = 130
BSTAR          = .16771356E-2
MEAN_MOTION_DOT = .58343E-3
MEAN_MOTION_DDOT = 0

CCSDS_OMM_VERS = 2.0
CREATION_DATE  = 
ORIGINATOR     = 

OBJECT_NAME    = KUIPER-00199
OBJECT_ID      = 2026-030H
CENTER_NAME    = EARTH
REF_FRAME      = TEME
TIME_SYSTEM    = UTC
MEAN_ELEMENT_THEORY = SGP/SGP4

EPOCH          = 2026-02-21T14:00:01.999872
MEAN_MOTION    = 15.33642754
ECCENTRICITY   = .00100322
INCLINATION    = 51.8807
RA_OF_ASC_NODE = 296.8722
ARG_OF_PERICENTER = 13.4643
MEAN_ANOMALY   = 101.9118

EPHEMERIS_TYPE = 0
CLASSIFICATION_TYPE = U
NORAD_CAT_ID   = 67771
ELEMENT_SET_NO = 999
REV_AT_EPOCH   = 253
BSTAR          = .17347805E-2
MEAN_MOTION_DOT = .57421E-3
MEAN_MOTION_DDOT = 0

CCSDS_OMM_VERS = 2.0
CREATION_DATE  = 
ORIGINATOR     = 

OBJECT_NAME    = KUIPER-00200
OBJECT_ID      = 2026-030J
CENTER_NAME    = EARTH
REF_FRAME      = TEME
TIME_SYSTEM    = UTC
MEAN_ELEMENT_THEORY = SGP/SGP4

EPOCH          = 2026-02-21T14:00:01.999872
MEAN_MOTION    = 15.36208119
ECCENTRICITY   = .00024474
INCLINATION    = 51.8815
RA_OF_ASC_NODE = 296.7071
ARG_OF_PERICENTER = 152.4743
MEAN_ANOMALY   = 44.7444

EPHEMERIS_TYPE = 0
CLASSIFICATION_TYPE = U
NORAD_CAT_ID   = 67772
ELEMENT_SET_NO = 999
REV_AT_EPOCH   = 241
BSTAR          = .16302227E-2
MEAN_MOTION_DOT = .58485E-3
MEAN_MOTION_DDOT = 0

